<?xml version="1.0" encoding="UTF-8"?><q:quakeml xmlns="http://quakeml.org/xmlns/bed/1.2" xmlns:q="http://quakeml.org/xmlns/quakeml/1.2"><eventParameters publicID="smi:org.gfz-potsdam.de/geofon/EventParameters"><event publicID="smi:org.gfz-potsdam.de/geofon/noa2020vipzs"><description><text>Dodecanese Islands, Greece</text><type>region name</type></description><typeCertainty>known</typeCertainty><creationInfo><agencyID>NOAIG</agencyID><author>scevent@sc3-prime</author><creationTime>2020-10-30T11:52:42.333901Z</creationTime></creationInfo><magnitude publicID="smi:org.gfz-potsdam.de/geofon/Magnitude/20201030120553.164804.58501"><stationCount>6</stationCount><creationInfo><agencyID>NOAreg1</agencyID><author>A.Moschou</author><creationTime>2020-10-30T12:06:30.220505Z</creationTime></creationInfo><mag><value>6.705492982</value><uncertainty>0.1605730668</uncertainty></mag><type>MLh</type><originID>smi:org.gfz-potsdam.de/geofon/NLL.20201030120543.489125.58477</originID><methodID>smi:org.gfz-potsdam.de/geofon/trimmed_mean</methodID><evaluationStatus>confirmed</evaluationStatus></magnitude><magnitude publicID="smi:org.gfz-potsdam.de/geofon/NLL.20201030120543.489125.58477/netMag/MLv"><stationCount>6</stationCount><creationInfo><agencyID>NOAIG</agencyID><author>scmag@sc3-prime</author><creationTime>2020-10-30T12:08:26.544175Z</creationTime></creationInfo><mag><value>6.843448835</value><uncertainty>0.2211945423</uncertainty></mag><type>MLv</type><originID>smi:org.gfz-potsdam.de/geofon/NLL.20201030120543.489125.58477</originID><methodID>smi:org.gfz-potsdam.de/geofon/trimmed_mean(25)</methodID></magnitude><origin publicID="smi:org.gfz-potsdam.de/geofon/NLL.20201030120543.489125.58477"><arrival publicID="smi:org.gfz-potsdam.de/geofon/Pick/20201030115448.475817.57897_NLL.20201030120543.489125.58477"><timeCorrection>0</timeCorrection><azimuth>172.3769759</azimuth><distance>0.9763233874</distance><timeResidual>0.1815095234</timeResidual><pickID>smi:org.gfz-potsdam.de/geofon/Pick/20201030115448.475817.57897</pickID><phase>S</phase><timeWeight>1.787834864</timeWeight></arrival><arrival publicID="smi:org.gfz-potsdam.de/geofon/Pick/20201030115448.476606.57900_NLL.20201030120543.489125.58477"><timeCorrection>0</timeCorrection><azimuth>342.2755691</azimuth><distance>1.389235197</distance><timeResidual>0.1837054794</timeResidual><pickID>smi:org.gfz-potsdam.de/geofon/Pick/20201030115448.476606.57900</pickID><phase>P</phase><timeWeight>1.836882753</timeWeight></arrival><arrival publicID="smi:org.gfz-potsdam.de/geofon/Pick/20201030115448.476788.57901_NLL.20201030120543.489125.58477"><timeCorrection>0</timeCorrection><azimuth>342.2755691</azimuth><distance>1.389235197</distance><timeResidual>0.9256925706</timeResidual><pickID>smi:org.gfz-potsdam.de/geofon/Pick/20201030115448.476788.57901</pickID><phase>S</phase><timeWeight>0.8350260447</timeWeight></arrival><arrival publicID="smi:org.gfz-potsdam.de/geofon/Pick/20201030115448.476961.57902_NLL.20201030120543.489125.58477"><timeCorrection>0</timeCorrection><azimuth>274.0258623</azimuth><distance>1.875198583</distance><timeResidual>8.483361746</timeResidual><pickID>smi:org.gfz-potsdam.de/geofon/Pick/20201030115448.476961.57902</pickID><phase>P</phase><timeWeight>1.611045668e-24</timeWeight></arrival><arrival publicID="smi:org.gfz-potsdam.de/geofon/Pick/20201030115448.477122.57903_NLL.20201030120543.489125.58477"><timeCorrection>0</timeCorrection><azimuth>274.0258623</azimuth><distance>1.875198583</distance><timeResidual>-4.389463231</timeResidual><pickID>smi:org.gfz-potsdam.de/geofon/Pick/20201030115448.477122.57903</pickID><phase>S</phase><timeWeight>0.2365021798</timeWeight></arrival><arrival publicID="smi:org.gfz-potsdam.de/geofon/Pick/20201030115547.810884.58125_NLL.20201030120543.489125.58477"><timeCorrection>0</timeCorrection><azimuth>307.9682911</azimuth><distance>0.7562275664</distance><timeResidual>-0.08478088047</timeResidual><pickID>smi:org.gfz-potsdam.de/geofon/Pick/20201030115547.810884.58125</pickID><phase>P</phase><timeWeight>1.91377283</timeWeight></arrival><arrival publicID="smi:org.gfz-potsdam.de/geofon/Pick/20201030115547.811281.58126_NLL.20201030120543.489125.58477"><timeCorrection>0</timeCorrection><azimuth>307.9682911</azimuth><distance>0.7562275664</distance><timeResidual>0.2186981524</timeResidual><pickID>smi:org.gfz-potsdam.de/geofon/Pick/20201030115547.811281.58126</pickID><phase>S</phase><timeWeight>1.817054976</timeWeight></arrival><arrival publicID="smi:org.gfz-potsdam.de/geofon/Pick/20201030115547.811883.58129_NLL.20201030120543.489125.58477"><timeCorrection>0</timeCorrection><azimuth>3.661653132</azimuth><distance>1.149979217</distance><timeResidual>-0.008689494517</timeResidual><pickID>smi:org.gfz-potsdam.de/geofon/Pick/20201030115547.811883.58129</pickID><phase>P</phase><timeWeight>1.927446798</timeWeight></arrival><arrival publicID="smi:org.gfz-potsdam.de/geofon/Pick/20201030115547.812304.58131_NLL.20201030120543.489125.58477"><timeCorrection>0</timeCorrection><azimuth>234.6040099</azimuth><distance>1.406418816</distance><timeResidual>3.545423663</timeResidual><pickID>smi:org.gfz-potsdam.de/geofon/Pick/20201030115547.812304.58131</pickID><phase>P</phase><timeWeight>9.509871814e-05</timeWeight></arrival><arrival publicID="smi:org.gfz-potsdam.de/geofon/Pick/20201030115547.81247.58132_NLL.20201030120543.489125.58477"><timeCorrection>0</timeCorrection><azimuth>234.6040099</azimuth><distance>1.406418816</distance><timeResidual>-0.1061508507</timeResidual><pickID>smi:org.gfz-potsdam.de/geofon/Pick/20201030115547.81247.58132</pickID><phase>S</phase><timeWeight>1.525491986</timeWeight></arrival><arrival publicID="smi:org.gfz-potsdam.de/geofon/Pick/20201030115547.812688.58133_NLL.20201030120543.489125.58477"><timeCorrection>0</timeCorrection><azimuth>218.0265092</azimuth><distance>1.835446257</distance><timeResidual>1.421085472e-13</timeResidual><pickID>smi:org.gfz-potsdam.de/geofon/Pick/20201030115547.812688.58133</pickID><phase>P</phase><timeWeight>1.737860369</timeWeight></arrival><arrival publicID="smi:org.gfz-potsdam.de/geofon/Pick/20201030115547.81289.58134_NLL.20201030120543.489125.58477"><timeCorrection>0</timeCorrection><azimuth>218.0265092</azimuth><distance>1.835446257</distance><timeResidual>0.9742925555</timeResidual><pickID>smi:org.gfz-potsdam.de/geofon/Pick/20201030115547.81289.58134</pickID><phase>S</phase><timeWeight>0.8166631669</timeWeight></arrival><arrival publicID="smi:org.gfz-potsdam.de/geofon/Pick/20201030115603.18669.58147_NLL.20201030120543.489125.58477"><timeCorrection>0</timeCorrection><azimuth>350.8319854</azimuth><distance>1.176575829</distance><timeResidual>-0.6353526514</timeResidual><pickID>smi:org.gfz-potsdam.de/geofon/Pick/20201030115603.18669.58147</pickID><phase>P</phase><timeWeight>0.6836966058</timeWeight></arrival><arrival publicID="smi:org.gfz-potsdam.de/geofon/Pick/20201030115603.187029.58148_NLL.20201030120543.489125.58477"><timeCorrection>0</timeCorrection><azimuth>350.8319854</azimuth><distance>1.176575829</distance><timeResidual>0.108788243</timeResidual><pickID>smi:org.gfz-potsdam.de/geofon/Pick/20201030115603.187029.58148</pickID><phase>S</phase><timeWeight>1.681923566</timeWeight></arrival><arrival publicID="smi:org.gfz-potsdam.de/geofon/Pick/20201030115629.922501.58155_NLL.20201030120543.489125.58477"><timeCorrection>0</timeCorrection><azimuth>3.661653132</azimuth><distance>1.149979217</distance><timeResidual>0.611549229</timeResidual><pickID>smi:org.gfz-potsdam.de/geofon/Pick/20201030115629.922501.58155</pickID><phase>S</phase><timeWeight>1.236641604</timeWeight></arrival><arrival publicID="smi:org.gfz-potsdam.de/geofon/Pick/20201030115629.922908.58156_NLL.20201030120543.489125.58477"><timeCorrection>0</timeCorrection><azimuth>254.0485818</azimuth><distance>1.359505595</distance><timeResidual>-2.238241255</timeResidual><pickID>smi:org.gfz-potsdam.de/geofon/Pick/20201030115629.922908.58156</pickID><phase>P</phase><timeWeight>0.2909288468</timeWeight></arrival><arrival publicID="smi:org.gfz-potsdam.de/geofon/Pick/20201030115629.923118.58157_NLL.20201030120543.489125.58477"><timeCorrection>0</timeCorrection><azimuth>254.0485818</azimuth><distance>1.359505595</distance><timeResidual>-5.568332318</timeResidual><pickID>smi:org.gfz-potsdam.de/geofon/Pick/20201030115629.923118.58157</pickID><phase>S</phase><timeWeight>0.04388803851</timeWeight></arrival><arrival publicID="smi:org.gfz-potsdam.de/geofon/Pick/20201030115653.690234.58172_NLL.20201030120543.489125.58477"><timeCorrection>0</timeCorrection><azimuth>318.510202</azimuth><distance>0.8302680378</distance><timeResidual>-0.3145741815</timeResidual><pickID>smi:org.gfz-potsdam.de/geofon/Pick/20201030115653.690234.58172</pickID><phase>P</phase><timeWeight>1.462565851</timeWeight></arrival><arrival publicID="smi:org.gfz-potsdam.de/geofon/Pick/20201030115653.690619.58173_NLL.20201030120543.489125.58477"><timeCorrection>0</timeCorrection><azimuth>172.3769759</azimuth><distance>0.9763233874</distance><timeResidual>-2.144510797</timeResidual><pickID>smi:org.gfz-potsdam.de/geofon/Pick/20201030115653.690619.58173</pickID><phase>P</phase><timeWeight>0.2546959431</timeWeight></arrival><arrival publicID="smi:org.gfz-potsdam.de/geofon/Pick/20201030115746.36973.58203_NLL.20201030120543.489125.58477"><timeCorrection>0</timeCorrection><azimuth>216.9797261</azimuth><distance>1.840454217</distance><timeResidual>-3.103290161</timeResidual><pickID>smi:org.gfz-potsdam.de/geofon/Pick/20201030115746.36973.58203</pickID><phase>P</phase><timeWeight>0.2242842553</timeWeight></arrival><arrival publicID="smi:org.gfz-potsdam.de/geofon/Pick/20201030115746.370118.58204_NLL.20201030120543.489125.58477"><timeCorrection>0</timeCorrection><azimuth>215.3789105</azimuth><distance>1.852742007</distance><timeResidual>-4.279022624</timeResidual><pickID>smi:org.gfz-potsdam.de/geofon/Pick/20201030115746.370118.58204</pickID><phase>P</phase><timeWeight>0.2355709096</timeWeight></arrival><arrival publicID="smi:org.gfz-potsdam.de/geofon/Pick/20201030115746.370314.58205_NLL.20201030120543.489125.58477"><timeCorrection>0</timeCorrection><azimuth>142.1776728</azimuth><distance>1.854932618</distance><timeResidual>0.6161930417</timeResidual><pickID>smi:org.gfz-potsdam.de/geofon/Pick/20201030115746.370314.58205</pickID><phase>P</phase><timeWeight>1.214614277</timeWeight></arrival><arrival publicID="smi:org.gfz-potsdam.de/geofon/Pick/20201030115746.370509.58206_NLL.20201030120543.489125.58477"><timeCorrection>0</timeCorrection><azimuth>142.3138733</azimuth><distance>1.857000726</distance><timeResidual>-0.3541061214</timeResidual><pickID>smi:org.gfz-potsdam.de/geofon/Pick/20201030115746.370509.58206</pickID><phase>P</phase><timeWeight>1.367497161</timeWeight></arrival><arrival publicID="smi:org.gfz-potsdam.de/geofon/Pick/20201030115746.370698.58207_NLL.20201030120543.489125.58477"><timeCorrection>0</timeCorrection><azimuth>216.4613403</azimuth><distance>1.867629544</distance><timeResidual>-0.04121755167</timeResidual><pickID>smi:org.gfz-potsdam.de/geofon/Pick/20201030115746.370698.58207</pickID><phase>P</phase><timeWeight>1.773004138</timeWeight></arrival><arrival publicID="smi:org.gfz-potsdam.de/geofon/Pick/20201030115746.371081.58209_NLL.20201030120543.489125.58477"><timeCorrection>0</timeCorrection><azimuth>216.9972759</azimuth><distance>1.89433665</distance><timeResidual>0.8647959756</timeResidual><pickID>smi:org.gfz-potsdam.de/geofon/Pick/20201030115746.371081.58209</pickID><phase>P</phase><timeWeight>0.8611160725</timeWeight></arrival><arrival publicID="smi:org.gfz-potsdam.de/geofon/Pick/20201030115746.371271.58210_NLL.20201030120543.489125.58477"><timeCorrection>0</timeCorrection><azimuth>218.1635003</azimuth><distance>1.906324792</distance><timeResidual>-3.960413517</timeResidual><pickID>smi:org.gfz-potsdam.de/geofon/Pick/20201030115746.371271.58210</pickID><phase>P</phase><timeWeight>0.248456891</timeWeight></arrival><arrival publicID="smi:org.gfz-potsdam.de/geofon/Pick/20201030115800.585656.58220_NLL.20201030120543.489125.58477"><timeCorrection>0</timeCorrection><azimuth>216.985439</azimuth><distance>1.887361247</distance><timeResidual>-2.852299466</timeResidual><pickID>smi:org.gfz-potsdam.de/geofon/Pick/20201030115800.585656.58220</pickID><phase>P</phase><timeWeight>0.2515560499</timeWeight></arrival><arrival publicID="smi:org.gfz-potsdam.de/geofon/Pick/20201030115810.80946.58232_NLL.20201030120543.489125.58477"><timeCorrection>0</timeCorrection><azimuth>218.5499454</azimuth><distance>1.892934789</distance><timeResidual>0.1219301634</timeResidual><pickID>smi:org.gfz-potsdam.de/geofon/Pick/20201030115810.80946.58232</pickID><phase>P</phase><timeWeight>1.734928724</timeWeight></arrival><time><value>2020-10-30T11:51:27.931699Z</value></time><longitude><value>26.8107605</value><uncertainty>1.076809606</uncertainty></longitude><latitude><value>37.92434692</value><uncertainty>0.5840053236</uncertainty></latitude><quality><associatedPhaseCount>28</associatedPhaseCount><usedPhaseCount>28</usedPhaseCount><usedStationCount>19</usedStationCount><standardError>0.8518461639</standardError><azimuthalGap>138.5160196</azimuthalGap><secondaryAzimuthalGap>138.6522201</secondaryAzimuthalGap><maximumDistance>1.906324792</maximumDistance><minimumDistance>0.7562275664</minimumDistance><medianDistance>1.840454217</medianDistance><groundTruthLevel>-</groundTruthLevel></quality><evaluationMode>manual</evaluationMode><creationInfo><agencyID>NOAreg1</agencyID><author>A.Moschou</author><creationTime>2020-10-30T12:05:44.857885Z</creationTime></creationInfo><depth><value>2014.261882</value><uncertainty>711.5975024</uncertainty></depth><originUncertainty><horizontalUncertainty>1657.292905</horizontalUncertainty><minHorizontalUncertainty>839.4741576</minHorizontalUncertainty><maxHorizontalUncertainty>1657.292905</maxHorizontalUncertainty><azimuthMaxHorizontalUncertainty>78.60345367</azimuthMaxHorizontalUncertainty><confidenceEllipsoid><semiMajorAxisLength>2053166.177</semiMajorAxisLength><semiMinorAxisLength>978407.289</semiMinorAxisLength><semiIntermediateAxisLength>1382667.32</semiIntermediateAxisLength><majorAxisPlunge>90.19269427</majorAxisPlunge><majorAxisAzimuth>11.37679393</majorAxisAzimuth><majorAxisRotation>68.84591387</majorAxisRotation></confidenceEllipsoid></originUncertainty><methodID>smi:org.gfz-potsdam.de/geofon/ak135</methodID><earthModelID>smi:org.gfz-potsdam.de/geofon/AK135</earthModelID><evaluationStatus>confirmed</evaluationStatus></origin><pick publicID="smi:org.gfz-potsdam.de/geofon/Pick/20201030115448.475817.57897"><phaseHint>S</phaseHint><evaluationMode>manual</evaluationMode><creationInfo><agencyID>NOAreg1</agencyID><author>A.Moschou</author><creationTime>2020-10-30T11:54:48.476022Z</creationTime></creationInfo><time><value>2020-10-30T11:51:59.509337Z</value><lowerUncertainty>0.1000000015</lowerUncertainty><upperUncertainty>0.1000000015</upperUncertainty></time><waveformID networkCode="HL" stationCode="KLNA" locationCode="00" channelCode="HNN"/><filterID>smi:org.gfz-potsdam.de/geofon/BW_BP(3,2.0,10.0)</filterID></pick><pick publicID="smi:org.gfz-potsdam.de/geofon/Pick/20201030115448.476606.57900"><phaseHint>P</phaseHint><evaluationMode>manual</evaluationMode><creationInfo><agencyID>NOAreg1</agencyID><author>A.Moschou</author><creationTime>2020-10-30T11:54:48.476711Z</creationTime></creationInfo><time><value>2020-10-30T11:51:54.511688Z</value><lowerUncertainty>0.1000000015</lowerUncertainty><upperUncertainty>0.1000000015</upperUncertainty></time><waveformID networkCode="HL" stationCode="PRK" channelCode="HHZ"/><filterID>smi:org.gfz-potsdam.de/geofon/BW_BP(3,2.0,10.0)</filterID></pick><pick publicID="smi:org.gfz-potsdam.de/geofon/Pick/20201030115448.476788.57901"><phaseHint>S</phaseHint><evaluationMode>manual</evaluationMode><creationInfo><agencyID>NOAreg1</agencyID><author>A.Moschou</author><creationTime>2020-10-30T11:54:48.47689Z</creationTime></creationInfo><time><value>2020-10-30T11:52:13.565227Z</value><lowerUncertainty>0.200000003</lowerUncertainty><upperUncertainty>0.200000003</upperUncertainty></time><waveformID networkCode="HL" stationCode="PRK" channelCode="HHN"/><filterID>smi:org.gfz-potsdam.de/geofon/BW_BP(3,2.0,10.0)</filterID></pick><pick publicID="smi:org.gfz-potsdam.de/geofon/Pick/20201030115448.476961.57902"><phaseHint>P</phaseHint><evaluationMode>manual</evaluationMode><creationInfo><agencyID>NOAreg1</agencyID><author>A.Moschou</author><creationTime>2020-10-30T11:54:48.477062Z</creationTime></creationInfo><time><value>2020-10-30T11:52:09.543681Z</value><lowerUncertainty>0.1000000015</lowerUncertainty><upperUncertainty>0.1000000015</upperUncertainty></time><waveformID networkCode="HA" stationCode="KARY" channelCode="HHZ"/><filterID>smi:org.gfz-potsdam.de/geofon/BW_BP(3,2.0,10.0)</filterID></pick><pick publicID="smi:org.gfz-potsdam.de/geofon/Pick/20201030115448.477122.57903"><phaseHint>S</phaseHint><evaluationMode>manual</evaluationMode><creationInfo><agencyID>NOAreg1</agencyID><author>A.Moschou</author><creationTime>2020-10-30T11:54:48.477223Z</creationTime></creationInfo><time><value>2020-10-30T11:52:20.944567Z</value><lowerUncertainty>0.1000000015</lowerUncertainty><upperUncertainty>0.1000000015</upperUncertainty></time><waveformID networkCode="HA" stationCode="KARY" channelCode="HHN"/><filterID>smi:org.gfz-potsdam.de/geofon/BW_BP(3,2.0,10.0)</filterID></pick><pick publicID="smi:org.gfz-potsdam.de/geofon/Pick/20201030115547.810884.58125"><phaseHint>P</phaseHint><evaluationMode>manual</evaluationMode><creationInfo><agencyID>NOAreg1</agencyID><author>A.Moschou</author><creationTime>2020-10-30T11:55:47.811138Z</creationTime></creationInfo><time><value>2020-10-30T11:51:42.564179Z</value><lowerUncertainty>0.1000000015</lowerUncertainty><upperUncertainty>0.1000000015</upperUncertainty></time><waveformID networkCode="HT" stationCode="CHOS" channelCode="HHZ"/><filterID>smi:org.gfz-potsdam.de/geofon/BW_BP(3,2.0,10.0)</filterID></pick><pick publicID="smi:org.gfz-potsdam.de/geofon/Pick/20201030115547.811281.58126"><phaseHint>S</phaseHint><evaluationMode>manual</evaluationMode><creationInfo><agencyID>NOAreg1</agencyID><author>A.Moschou</author><creationTime>2020-10-30T11:55:47.8114Z</creationTime></creationInfo><time><value>2020-10-30T11:51:52.832788Z</value><lowerUncertainty>0.1000000015</lowerUncertainty><upperUncertainty>0.1000000015</upperUncertainty></time><waveformID networkCode="HT" stationCode="CHOS" channelCode="HHN"/><filterID>smi:org.gfz-potsdam.de/geofon/BW_BP(3,2.0,10.0)</filterID></pick><pick publicID="smi:org.gfz-potsdam.de/geofon/Pick/20201030115547.811883.58129"><phaseHint>P</phaseHint><evaluationMode>manual</evaluationMode><creationInfo><agencyID>NOAreg1</agencyID><author>A.Moschou</author><creationTime>2020-10-30T11:55:47.812028Z</creationTime></creationInfo><time><value>2020-10-30T11:51:49.982565Z</value><lowerUncertainty>0.1000000015</lowerUncertainty><upperUncertainty>0.1000000015</upperUncertainty></time><waveformID networkCode="KO" stationCode="DKL" channelCode="BHZ"/><filterID>smi:org.gfz-potsdam.de/geofon/BW_BP(3,2.0,10.0)</filterID></pick><pick publicID="smi:org.gfz-potsdam.de/geofon/Pick/20201030115547.812304.58131"><phaseHint>P</phaseHint><evaluationMode>manual</evaluationMode><creationInfo><agencyID>NOAreg1</agencyID><author>A.Moschou</author><creationTime>2020-10-30T11:55:47.812409Z</creationTime></creationInfo><time><value>2020-10-30T11:51:58.103745Z</value><lowerUncertainty>0.200000003</lowerUncertainty><upperUncertainty>0.200000003</upperUncertainty></time><waveformID networkCode="HI" stationCode="NAX1" channelCode="HNZ"/><filterID>smi:org.gfz-potsdam.de/geofon/BW_BP(3,2.0,10.0)</filterID></pick><pick publicID="smi:org.gfz-potsdam.de/geofon/Pick/20201030115547.81247.58132"><phaseHint>S</phaseHint><evaluationMode>manual</evaluationMode><creationInfo><agencyID>NOAreg1</agencyID><author>A.Moschou</author><creationTime>2020-10-30T11:55:47.812576Z</creationTime></creationInfo><time><value>20